start=new Date('2022-06-10T00:00:00.000Z').valueOf();
sats=[{"CENTER_NAME":"EARTH","OBJECT_NAME":"STARLINK-1549","APOAPSIS":"548.829","MEAN_ANOMALY":"306.8730","SEMIMAJOR_AXIS":"6925.357","TIME_SYSTEM":"UTC","EPOCH":"2022-06-09T22:11:54.625056","ECCENTRICITY":"0.00023210","SITE":"AFETR","FILE":"3489040","MEAN_ELEMENT_THEORY":"SGP4","TLE_LINE1":"1 46074U 20055AZ  22160.92493779 -.00000704  00000-0 -28344-4 0  9992","CLASSIFICATION_TYPE":"U","MEAN_MOTION_DDOT":"0.0000000000000","MEAN_MOTION_DOT":"-0.00000704","LAUNCH_DATE":"2020-08-07","BSTAR":"-0.00002834400000","OBJECT_ID":"2020-055AZ","EPHEMERIS_TYPE":"0","ARG_OF_PERICENTER":"53.2471","ELEMENT_SET_NO":"999","PERIOD":"95.592","OBJECT_TYPE":"PAYLOAD","REV_AT_EPOCH":"10299","INCLINATION":"53.0548","TLE_LINE2":"2 46074  53.0548 121.2347 0002321  53.2471 306.8730 15.06397206102995","REF_FRAME":"TEME","NORAD_CAT_ID":"46074","RA_OF_ASC_NODE":"121.2347","PERIAPSIS":"545.615","DECAY_DATE":null,"GP_ID":"205778753","MEAN_MOTION":"15.06397206","COUNTRY_CODE":"US","RCS_SIZE":"LARGE"},{"TLE_LINE1":"1 46075U 20055BA  22160.88438972  .00002109  00000-0  16042-3 0  9992","CLASSIFICATION_TYPE":"U","FILE":"3489040","MEAN_ELEMENT_THEORY":"SGP4","MEAN_MOTION_DOT":"0.00002109","MEAN_MOTION_DDOT":"0.0000000000000","SEMIMAJOR_AXIS":"6925.346","CENTER_NAME":"EARTH","OBJECT_NAME":"STARLINK-1551","MEAN_ANOMALY":"304.1262","APOAPSIS":"548.708","EPOCH":"2022-06-09T21:13:31.271808","SITE":"AFETR","ECCENTRICITY":"0.00021620","TIME_SYSTEM":"UTC","REV_AT_EPOCH":"10299","INCLINATION":"53.0540","TLE_LINE2":"2 46075  53.0540 121.4134 0002162  55.9932 304.1262 15.06400830102997","REF_FRAME":"TEME","NORAD_CAT_ID":"46075","ELEMENT_SET_NO":"999","PERIOD":"95.592","OBJECT_TYPE":"PAYLOAD","GP_ID":"205779505","MEAN_MOTION":"15.06400830","COUNTRY_CODE":"US","RCS_SIZE":"LARGE","RA_OF_ASC_NODE":"121.4134","PERIAPSIS":"545.714","DECAY_DATE":null,"OBJECT_ID":"2020-055BA","BSTAR":"0.00016042000000","EPHEMERIS_TYPE":"0","ARG_OF_PERICENTER":"55.9932","LAUNCH_DATE":"2020-08-07"},{"EPHEMERIS_TYPE":"0","BSTAR":"-0.00011426000000","OBJECT_ID":"2020-055BB","ARG_OF_PERICENTER":"57.1901","LAUNCH_DATE":"2020-08-07","TLE_LINE2":"2 46076  53.0550 121.3153 0002590  57.1901 302.9337 15.06401307102982","NORAD_CAT_ID":"46076","REF_FRAME":"TEME","REV_AT_EPOCH":"10298","INCLINATION":"53.0550","PERIOD":"95.592","OBJECT_TYPE":"PAYLOAD","ELEMENT_SET_NO":"999","GP_ID":"205779255","COUNTRY_CODE":"US","MEAN_MOTION":"15.06401307","RCS_SIZE":"LARGE","DECAY_DATE":null,"PERIAPSIS":"545.416","RA_OF_ASC_NODE":"121.3153","SEMIMAJOR_AXIS":"6925.345","MEAN_ANOMALY":"302.9337","APOAPSIS":"549.003","CENTER_NAME":"EARTH","OBJECT_NAME":"STARLINK-1552","ECCENTRICITY":"0.00025900","SITE":"AFETR","EPOCH":"2022-06-09T21:50:40.825536","TIME_SYSTEM":"UTC","CLASSIFICATION_TYPE":"U","TLE_LINE1":"1 46076U 20055BB  22160.91019474 -.00001984  00000-0 -11426-3 0  9992","FILE":"3489040","MEAN_ELEMENT_THEORY":"SGP4","MEAN_MOTION_DOT":"-0.00001984","MEAN_MOTION_DDOT":"0.0000000000000"},{"TLE_LINE1":"1 46077U 20055BC  22160.62637865 -.00001496  00000-0 -81530-4 0  9993","CLASSIFICATION_TYPE":"U","MEAN_ELEMENT_THEORY":"SGP4","FILE":"3489040","MEAN_MOTION_DOT":"-0.00001496","MEAN_MOTION_DDOT":"0.0000000000000","SEMIMAJOR_AXIS":"6925.367","CENTER_NAME":"EARTH","OBJECT_NAME":"STARLINK-1559","APOAPSIS":"548.651","MEAN_ANOMALY":"306.9100","EPOCH":"2022-06-09T15:01:59.115360","SITE":"AFETR","ECCENTRICITY":"0.00020490","TIME_SYSTEM":"UTC","INCLINATION":"53.0556","REV_AT_EPOCH":"10291","TLE_LINE2":"2 46077  53.0556 122.5857 0002049  53.2077 306.9100 15.06394138102911","REF_FRAME":"TEME","NORAD_CAT_ID":"46077","ELEMENT_SET_NO":"999","PERIOD":"95.593","OBJECT_TYPE":"PAYLOAD","GP_ID":"205778003","MEAN_MOTION":"15.06394138","COUNTRY_CODE":"US","RCS_SIZE":"LARGE","RA_OF_ASC_NODE":"122.5857","PERIAPSIS":"545.813","DECAY_DATE":null,"BSTAR":"-0.00008153000000","EPHEMERIS_TYPE":"0","OBJECT_ID":"2020-055BC","ARG_OF_PERICENTER":"53.2077","LAUNCH_DATE":"2020-08-07"},{"MEAN_MOTION":"15.06403650","GP_ID":"205778253","COUNTRY_CODE":"US","RCS_SIZE":"LARGE","PERIAPSIS":"545.545","DECAY_DATE":null,"RA_OF_ASC_NODE":"122.6898","TLE_LINE2":"2 46078  53.0540 122.6898 0002393  51.3115 308.8087 15.06403650102921","REF_FRAME":"TEME","NORAD_CAT_ID":"46078","INCLINATION":"53.0540","REV_AT_EPOCH":"10292","PERIOD":"95.592","OBJECT_TYPE":"PAYLOAD","ELEMENT_SET_NO":"999","BSTAR":"0.00006707900000","EPHEMERIS_TYPE":"0","OBJECT_ID":"2020-055BD","ARG_OF_PERICENTER":"51.3115","LAUNCH_DATE":"2020-08-07","MEAN_MOTION_DOT":"0.00000717","MEAN_MOTION_DDOT":"0.0000000000000","CLASSIFICATION_TYPE":"U","TLE_LINE1":"1 46078U 20055BD  22160.60426165  .00000717  00000-0  67079-4 0  9996","MEAN_ELEMENT_THEORY":"SGP4","FILE":"3489040","SITE":"AFETR","ECCENTRICITY":"0.00023930","EPOCH":"2022-06-09T14:30:08.206560","TIME_SYSTEM":"UTC","SEMIMAJOR_AXIS":"6925.337","APOAPSIS":"548.860","MEAN_ANOMALY":"308.8087","CENTER_NAME":"EARTH","OBJECT_NAME":"STARLINK-1563"},{"FILE":"3489040","MEAN_ELEMENT_THEORY":"SGP4","CLASSIFICATION_TYPE":"U","TLE_LINE1":"1 46079U 20055BE  22160.59689195 -.00000205  00000-0  51415-5 0  9990","MEAN_MOTION_DDOT":"0.0000000000000","MEAN_MOTION_DOT":"-0.00000205","APOAPSIS":"548.526","MEAN_ANOMALY":"294.1334","OBJECT_NAME":"STARLINK-1566","CENTER_NAME":"EARTH","SEMIMAJOR_AXIS":"6925.364","TIME_SYSTEM":"UTC","ECCENTRICITY":"0.00018740","SITE":"AFETR","EPOCH":"2022-06-09T14:19:31.464480","OBJECT_TYPE":"PAYLOAD","PERIOD":"95.592","ELEMENT_SET_NO":"999","NORAD_CAT_ID":"46079","REF_FRAME":"TEME","TLE_LINE2":"2 46079  53.0550 122.7137 0001874  65.9851 294.1334 15.06395106102952","INCLINATION":"53.0550","REV_AT_EPOCH":"10295","DECAY_DATE":null,"PERIAPSIS":"545.931","RA_OF_ASC_NODE":"122.7137","RCS_SIZE":"LARGE","MEAN_MOTION":"15.06395106","GP_ID":"205779005","COUNTRY_CODE":"US","LAUNCH_DATE":"2020-08-07","ARG_OF_PERICENTER":"65.9851","BSTAR":"0.00000514150000","OBJECT_ID":"2020-055BE","EPHEMERIS_TYPE":"0"},{"MEAN_ELEMENT_THEORY":"SGP4","FILE":"3489040","TLE_LINE1":"1 46080U 20055BF  22160.88713449 -.00000436  00000-0 -10347-4 0  9999","CLASSIFICATION_TYPE":"U","MEAN_MOTION_DDOT":"0.0000000000000","MEAN_MOTION_DOT":"-0.00000436","CENTER_NAME":"EARTH","OBJECT_NAME":"STARLINK-1568","APOAPSIS":"548.674","MEAN_ANOMALY":"317.6412","SEMIMAJOR_AXIS":"6925.371","TIME_SYSTEM":"UTC","EPOCH":"2022-06-09T21:17:28.419936","SITE":"AFETR","ECCENTRICITY":"0.00020760","ELEMENT_SET_NO":"999","PERIOD":"95.593","OBJECT_TYPE":"PAYLOAD","REV_AT_EPOCH":"10297","INCLINATION":"53.0546","TLE_LINE2":"2 46080  53.0546 121.3910 0002076  42.4737 317.6412 15.06392545102975","REF_FRAME":"TEME","NORAD_CAT_ID":"46080","RA_OF_ASC_NODE":"121.3910","DECAY_DATE":null,"PERIAPSIS":"545.799","GP_ID":"205779756","COUNTRY_CODE":"US","MEAN_MOTION":"15.06392545","RCS_SIZE":"LARGE","LAUNCH_DATE":"2020-08-07","OBJECT_ID":"2020-055BF","BSTAR":"-0.00001034700000","EPHEMERIS_TYPE":"0","ARG_OF_PERICENTER":"42.4737"},{"ELEMENT_SET_NO":"999","OBJECT_TYPE":"PAYLOAD","PERIOD":"95.593","REV_AT_EPOCH":"10299","INCLINATION":"53.0545","REF_FRAME":"TEME","NORAD_CAT_ID":"46081","TLE_LINE2":"2 46081  53.0545 121.2509 0001976  55.2384 304.8791 15.06392630102991","RA_OF_ASC_NODE":"121.2509","DECAY_DATE":null,"PERIAPSIS":"545.868","RCS_SIZE":"LARGE","COUNTRY_CODE":"US","GP_ID":"205778504","MEAN_MOTION":"15.06392630","LAUNCH_DATE":"2020-08-07","ARG_OF_PERICENTER":"55.2384","BSTAR":"-0.00002256600000","OBJECT_ID":"2020-055BG","EPHEMERIS_TYPE":"0","MEAN_ELEMENT_THEORY":"SGP4","FILE":"3489040","TLE_LINE1":"1 46081U 20055BG  22160.92125654 -.00000618  00000-0 -22566-4 0  9998","CLASSIFICATION_TYPE":"U","MEAN_MOTION_DDOT":"0.0000000000000","MEAN_MOTION_DOT":"-0.00000618","OBJECT_NAME":"STARLINK-1571","CENTER_NAME":"EARTH","APOAPSIS":"548.605","MEAN_ANOMALY":"304.8791","SEMIMAJOR_AXIS":"6925.371","TIME_SYSTEM":"UTC","EPOCH":"2022-06-09T22:06:36.565056","SITE":"AFETR","ECCENTRICITY":"0.00019760"},{"TLE_LINE1":"1 46082U 20055BH  22160.87702143 -.00004357  00000-0 -27371-3 0  9999","CLASSIFICATION_TYPE":"U","MEAN_ELEMENT_THEORY":"SGP4","FILE":"3489040","MEAN_MOTION_DOT":"-0.00004357","MEAN_MOTION_DDOT":"0.0000000000000","SEMIMAJOR_AXIS":"6925.328","CENTER_NAME":"EARTH","OBJECT_NAME":"STARLINK-1578","MEAN_ANOMALY":"299.9140","APOAPSIS":"548.635","EPOCH":"2022-06-09T21:02:54.651552","SITE":"AFETR","ECCENTRICITY":"0.00020820","TIME_SYSTEM":"UTC","REV_AT_EPOCH":"10299","INCLINATION":"53.0559","TLE_LINE2":"2 46082  53.0559 121.4619 0002082  60.2055 299.9140 15.06406770102994","NORAD_CAT_ID":"46082","REF_FRAME":"TEME","ELEMENT_SET_NO":"999","PERIOD":"95.592","OBJECT_TYPE":"PAYLOAD","GP_ID":"205778754","MEAN_MOTION":"15.06406770","COUNTRY_CODE":"US","RCS_SIZE":"LARGE","RA_OF_ASC_NODE":"121.4619","PERIAPSIS":"545.751","DECAY_DATE":null,"BSTAR":"-0.00027371000000","OBJECT_ID":"2020-055BH","EPHEMERIS_TYPE":"0","ARG_OF_PERICENTER":"60.2055","LAUNCH_DATE":"2020-08-07"},{"RCS_SIZE":"LARGE","GP_ID":"205779506","COUNTRY_CODE":"US","MEAN_MOTION":"15.06407309","PERIAPSIS":"545.706","DECAY_DATE":null,"RA_OF_ASC_NODE":"121.2812","NORAD_CAT_ID":"46083","REF_FRAME":"TEME","TLE_LINE2":"2 46083  53.0558 121.2812 0002144  64.5815 295.5396 15.06407309102991","REV_AT_EPOCH":"10299","INCLINATION":"53.0558","OBJECT_TYPE":"PAYLOAD","PERIOD":"95.592","ELEMENT_SET_NO":"999","ARG_OF_PERICENTER":"64.5815","BSTAR":"0.00007823800000","EPHEMERIS_TYPE":"0","OBJECT_ID":"2020-055BJ","LAUNCH_DATE":"2020-08-07","MEAN_MOTION_DOT":"0.00000884","MEAN_MOTION_DDOT":"0.0000000000000","CLASSIFICATION_TYPE":"U","TLE_LINE1":"1 46083U 20055BJ  22160.91389271  .00000884  00000-0  78238-4 0  9996","FILE":"3489040","MEAN_ELEMENT_THEORY":"SGP4","SITE":"AFETR","ECCENTRICITY":"0.00021440","EPOCH":"2022-06-09T21:56:00.330144","TIME_SYSTEM":"UTC","SEMIMAJOR_AXIS":"6925.326","APOAPSIS":"548.676","MEAN_ANOMALY":"295.5396","OBJECT_NAME":"STARLINK-1579","CENTER_NAME":"EARTH"}];
